OBJECT_NAME,OBJECT_ID,EPOCH,MEAN_MOTION,ECCENTRICITY,INCLINATION,RA_OF_ASC_NODE,ARG_OF_PERICENTER,MEAN_ANOMALY,EPHEMERIS_TYPE,CLASSIFICATION_TYPE,NORAD_CAT_ID,ELEMENT_SET_NO,REV_AT_EPOCH,BSTAR,MEAN_MOTION_DOT,MEAN_MOTION_DDOT
HAWK-5A,2022-057AB,2026-07-10T06:11:17.726784,15.52207867,.00038367,97.6616,351.6130,357.6860,2.4373,0,U,52757,999,22992,.22031665E-3,.13256E-3,0
HAWK-6B,2023-011A,2026-07-10T03:11:51.887616,15.23126702,.00033829,40.4970,218.2156,213.8649,146.1945,0,U,55324,999,19134,.13693848E-3,.3105E-4,0
HAWK-6C,2023-011C,2026-07-10T04:45:23.044896,15.23128453,.00039045,40.4958,214.6720,203.6863,156.3767,0,U,55326,999,19136,.14521455E-3,.3305E-4,0
HAWK-6A,2023-011D,2026-07-09T13:01:15.484512,15.23123028,.0003302,40.4966,220.1247,196.9999,163.0700,0,U,55327,999,19126,.12665858E-3,.2857E-4,0
HAWK-7A,2023-054P,2026-07-09T17:04:11.233632,15.27595507,.00020321,97.2676,77.4761,358.9659,1.1576,0,U,56191,999,18046,.14578753E-3,.3861E-4,0
HAWK-7B,2023-054R,2026-07-09T17:04:04.701792,15.27594208,.00019438,97.2702,75.7478,26.8388,333.2952,0,U,56193,999,18046,.11290361E-3,.2974E-4,0
HAWK-7C,2023-054Y,2026-07-10T02:29:52.463616,15.27600583,.00014906,97.2679,76.8926,12.3347,347.7929,0,U,56200,999,18052,.15018629E-3,.398E-4,0
