HAWK-5A                 
1 52757U 22057AB  26191.25784406  .00013256  00000+0  22032-3 0  9995
2 52757  97.6616 351.6130 0003836 357.6860   2.4373 15.52207867229923
HAWK-6B                 
1 55324U 23011A   26191.13323944  .00003105  00000+0  13694-3 0  9998
2 55324  40.4970 218.2156 0003382 213.8649 146.1945 15.23126702191346
HAWK-6C                 
1 55326U 23011C   26191.19818339  .00003305  00000+0  14521-3 0  9995
2 55326  40.4958 214.6720 0003904 203.6863 156.3767 15.23128453191368
HAWK-6A                 
1 55327U 23011D   26190.54254033  .00002857  00000+0  12666-3 0  9998
2 55327  40.4966 220.1247 0003302 196.9999 163.0700 15.23123028191264
HAWK-7A                 
1 56191U 23054P   26190.71124113  .00003861  00000+0  14579-3 0  9990
2 56191  97.2676  77.4761 0002032 358.9659   1.1576 15.27595507180460
HAWK-7B                 
1 56193U 23054R   26190.71116553  .00002974  00000+0  11290-3 0  9992
2 56193  97.2702  75.7478 0001943  26.8388 333.2952 15.27594208180462
HAWK-7C                 
1 56200U 23054Y   26191.10407944  .00003980  00000+0  15019-3 0  9993
2 56200  97.2679  76.8926 0001490  12.3347 347.7929 15.27600583180521
